CCSDS_OMM_VERS = 2.0
CREATION_DATE  = 
ORIGINATOR     = 

OBJECT_NAME    = DELTA 2 R/B(1)
OBJECT_ID      = 1990-008B
CENTER_NAME    = EARTH
REF_FRAME      = TEME
TIME_SYSTEM    = UTC
MEAN_ELEMENT_THEORY = SGP/SGP4

EPOCH          = 2026-01-11T04:28:18.246720
MEAN_MOTION    = 15.48249550
ECCENTRICITY   = .01028415
INCLINATION    = 35.6032
RA_OF_ASC_NODE = 189.9752
ARG_OF_PERICENTER = 86.7758
MEAN_ANOMALY   = 274.4736

EPHEMERIS_TYPE = 0
CLASSIFICATION_TYPE = U
NORAD_CAT_ID   = 20453
ELEMENT_SET_NO = 999
REV_AT_EPOCH   = 91719
BSTAR          = .82715612E-3
MEAN_MOTION_DOT = .56038E-3
MEAN_MOTION_DDOT = 0

CCSDS_OMM_VERS = 2.0
CREATION_DATE  = 
ORIGINATOR     = 

OBJECT_NAME    = COSMOS 2058
OBJECT_ID      = 1990-010A
CENTER_NAME    = EARTH
REF_FRAME      = TEME
TIME_SYSTEM    = UTC
MEAN_ELEMENT_THEORY = SGP/SGP4

EPOCH          = 2026-01-11T07:13:04.259136
MEAN_MOTION    = 15.10792460
ECCENTRICITY   = .0010192
INCLINATION    = 82.4690
RA_OF_ASC_NODE = 103.9533
ARG_OF_PERICENTER = 167.2092
MEAN_ANOMALY   = 192.9398

EPHEMERIS_TYPE = 0
CLASSIFICATION_TYPE = U
NORAD_CAT_ID   = 20465
ELEMENT_SET_NO = 999
REV_AT_EPOCH   = 93357
BSTAR          = .24384576E-3
MEAN_MOTION_DOT = .408E-4
MEAN_MOTION_DDOT = 0

CCSDS_OMM_VERS = 2.0
CREATION_DATE  = 
ORIGINATOR     = 

OBJECT_NAME    = SL-14 R/B
OBJECT_ID      = 1990-010B
CENTER_NAME    = EARTH
REF_FRAME      = TEME
TIME_SYSTEM    = UTC
MEAN_ELEMENT_THEORY = SGP/SGP4

EPOCH          = 2026-01-11T06:55:48.915840
MEAN_MOTION    = 14.83506521
ECCENTRICITY   = .00210631
INCLINATION    = 82.5041
RA_OF_ASC_NODE = 321.2962
ARG_OF_PERICENTER = 126.2660
MEAN_ANOMALY   = 234.0505

EPHEMERIS_TYPE = 0
CLASSIFICATION_TYPE = U
NORAD_CAT_ID   = 20466
ELEMENT_SET_NO = 999
REV_AT_EPOCH   = 91997
BSTAR          = .61948875E-4
MEAN_MOTION_DOT = .535E-5
MEAN_MOTION_DDOT = 0

CCSDS_OMM_VERS = 2.0
CREATION_DATE  = 
ORIGINATOR     = 

OBJECT_NAME    = SL-14 R/B
OBJECT_ID      = 1990-018B
CENTER_NAME    = EARTH
REF_FRAME      = TEME
TIME_SYSTEM    = UTC
MEAN_ELEMENT_THEORY = SGP/SGP4

EPOCH          = 2026-01-11T04:24:34.089696
MEAN_MOTION    = 14.82083442
ECCENTRICITY   = .0014948
INCLINATION    = 82.5217
RA_OF_ASC_NODE = 276.8476
ARG_OF_PERICENTER = 282.8933
MEAN_ANOMALY   = 77.0611

EPHEMERIS_TYPE = 0
CLASSIFICATION_TYPE = U
NORAD_CAT_ID   = 20511
ELEMENT_SET_NO = 999
REV_AT_EPOCH   = 91406
BSTAR          = .56621654E-4
MEAN_MOTION_DOT = .474E-5
MEAN_MOTION_DDOT = 0

CCSDS_OMM_VERS = 2.0
CREATION_DATE  = 
ORIGINATOR     = 

OBJECT_NAME    = HST
OBJECT_ID      = 1990-037B
CENTER_NAME    = EARTH
REF_FRAME      = TEME
TIME_SYSTEM    = UTC
MEAN_ELEMENT_THEORY = SGP/SGP4

EPOCH          = 2026-01-10T20:26:25.261728
MEAN_MOTION    = 15.28490865
ECCENTRICITY   = .00021399
INCLINATION    = 28.4669
RA_OF_ASC_NODE = 74.2672
ARG_OF_PERICENTER = 179.3413
MEAN_ANOMALY   = 180.7186

EPHEMERIS_TYPE = 0
CLASSIFICATION_TYPE = U
NORAD_CAT_ID   = 20580
ELEMENT_SET_NO = 999
REV_AT_EPOCH   = 76445
BSTAR          = .24489782E-3
MEAN_MOTION_DOT = .7215E-4
MEAN_MOTION_DDOT = 0

CCSDS_OMM_VERS = 2.0
CREATION_DATE  = 
ORIGINATOR     = 

OBJECT_NAME    = SL-16 R/B
OBJECT_ID      = 1990-046B
CENTER_NAME    = EARTH
REF_FRAME      = TEME
TIME_SYSTEM    = UTC
MEAN_ELEMENT_THEORY = SGP/SGP4

EPOCH          = 2026-01-11T07:05:17.790720
MEAN_MOTION    = 14.15006140
ECCENTRICITY   = .00131915
INCLINATION    = 70.9998
RA_OF_ASC_NODE = 58.4518
ARG_OF_PERICENTER = 22.9156
MEAN_ANOMALY   = 337.2553

EPHEMERIS_TYPE = 0
CLASSIFICATION_TYPE = U
NORAD_CAT_ID   = 20625
ELEMENT_SET_NO = 999
REV_AT_EPOCH   = 84027
BSTAR          = .14200154E-3
MEAN_MOTION_DOT = .228E-5
MEAN_MOTION_DDOT = 0

CCSDS_OMM_VERS = 2.0
CREATION_DATE  = 
ORIGINATOR     = 

OBJECT_NAME    = COSMOS 2084
OBJECT_ID      = 1990-055A
CENTER_NAME    = EARTH
REF_FRAME      = TEME
TIME_SYSTEM    = UTC
MEAN_ELEMENT_THEORY = SGP/SGP4

EPOCH          = 2026-01-10T22:24:27.455904
MEAN_MOTION    = 15.05233437
ECCENTRICITY   = .00267943
INCLINATION    = 62.7889
RA_OF_ASC_NODE = 172.5037
ARG_OF_PERICENTER = 179.0676
MEAN_ANOMALY   = 181.0479

EPHEMERIS_TYPE = 0
CLASSIFICATION_TYPE = U
NORAD_CAT_ID   = 20663
ELEMENT_SET_NO = 999
REV_AT_EPOCH   = 92762
BSTAR          = .24811908E-3
MEAN_MOTION_DOT = .3384E-4
MEAN_MOTION_DDOT = 0

CCSDS_OMM_VERS = 2.0
CREATION_DATE  = 
ORIGINATOR     = 

OBJECT_NAME    = SL-6 R/B(2)
OBJECT_ID      = 1990-055D
CENTER_NAME    = EARTH
REF_FRAME      = TEME
TIME_SYSTEM    = UTC
MEAN_ELEMENT_THEORY = SGP/SGP4

EPOCH          = 2026-01-11T05:42:21.600864
MEAN_MOTION    = 15.03252330
ECCENTRICITY   = .00164694
INCLINATION    = 62.7836
RA_OF_ASC_NODE = 89.1741
ARG_OF_PERICENTER = 327.0394
MEAN_ANOMALY   = 32.9677

EPHEMERIS_TYPE = 0
CLASSIFICATION_TYPE = U
NORAD_CAT_ID   = 20666
ELEMENT_SET_NO = 999
REV_AT_EPOCH   = 92955
BSTAR          = .18062377E-3
MEAN_MOTION_DOT = .2266E-4
MEAN_MOTION_DDOT = 0

CCSDS_OMM_VERS = 2.0
CREATION_DATE  = 
ORIGINATOR     = 

OBJECT_NAME    = SL-8 R/B
OBJECT_ID      = 1990-078B
CENTER_NAME    = EARTH
REF_FRAME      = TEME
TIME_SYSTEM    = UTC
MEAN_ELEMENT_THEORY = SGP/SGP4

EPOCH          = 2026-01-11T06:47:24.981792
MEAN_MOTION    = 14.86982431
ECCENTRICITY   = .03688319
INCLINATION    = 82.9058
RA_OF_ASC_NODE = 302.8482
ARG_OF_PERICENTER = 206.4169
MEAN_ANOMALY   = 151.7835

EPHEMERIS_TYPE = 0
CLASSIFICATION_TYPE = U
NORAD_CAT_ID   = 20775
ELEMENT_SET_NO = 999
REV_AT_EPOCH   = 80076
BSTAR          = .57496972E-3
MEAN_MOTION_DOT = .18896E-3
MEAN_MOTION_DDOT = 0

CCSDS_OMM_VERS = 2.0
CREATION_DATE  = 
ORIGINATOR     = 

OBJECT_NAME    = SL-8 R/B
OBJECT_ID      = 1991-006B
CENTER_NAME    = EARTH
REF_FRAME      = TEME
TIME_SYSTEM    = UTC
MEAN_ELEMENT_THEORY = SGP/SGP4

EPOCH          = 2026-01-11T08:04:40.131840
MEAN_MOTION    = 13.77492548
ECCENTRICITY   = .00221175
INCLINATION    = 82.9407
RA_OF_ASC_NODE = 212.6966
ARG_OF_PERICENTER = 193.0388
MEAN_ANOMALY   = 340.1566

EPHEMERIS_TYPE = 0
CLASSIFICATION_TYPE = U
NORAD_CAT_ID   = 21088
ELEMENT_SET_NO = 999
REV_AT_EPOCH   = 75617
BSTAR          = -.23179692E-4
MEAN_MOTION_DOT = -.8E-7
MEAN_MOTION_DDOT = 0

CCSDS_OMM_VERS = 2.0
CREATION_DATE  = 
ORIGINATOR     = 

OBJECT_NAME    = OKEAN-3
OBJECT_ID      = 1991-039A
CENTER_NAME    = EARTH
REF_FRAME      = TEME
TIME_SYSTEM    = UTC
MEAN_ELEMENT_THEORY = SGP/SGP4

EPOCH          = 2026-01-11T03:37:43.872672
MEAN_MOTION    = 15.04334399
ECCENTRICITY   = .00151285
INCLINATION    = 82.5164
RA_OF_ASC_NODE = 32.5712
ARG_OF_PERICENTER = 160.7983
MEAN_ANOMALY   = 199.3817

EPHEMERIS_TYPE = 0
CLASSIFICATION_TYPE = U
NORAD_CAT_ID   = 21397
ELEMENT_SET_NO = 999
REV_AT_EPOCH   = 85638
BSTAR          = .19642823E-3
MEAN_MOTION_DOT = .2771E-4
MEAN_MOTION_DDOT = 0

CCSDS_OMM_VERS = 2.0
CREATION_DATE  = 
ORIGINATOR     = 

OBJECT_NAME    = COSMOS 2151
OBJECT_ID      = 1991-042A
CENTER_NAME    = EARTH
REF_FRAME      = TEME
TIME_SYSTEM    = UTC
MEAN_ELEMENT_THEORY = SGP/SGP4

EPOCH          = 2026-01-11T07:31:09.268608
MEAN_MOTION    = 14.99838497
ECCENTRICITY   = .00112936
INCLINATION    = 82.4978
RA_OF_ASC_NODE = 139.0028
ARG_OF_PERICENTER = 251.0809
MEAN_ANOMALY   = 108.9191

EPHEMERIS_TYPE = 0
CLASSIFICATION_TYPE = U
NORAD_CAT_ID   = 21422
ELEMENT_SET_NO = 999
REV_AT_EPOCH   = 85459
BSTAR          = .17838294E-3
MEAN_MOTION_DOT = .2237E-4
MEAN_MOTION_DDOT = 0

