DELTA 2 R/B(1)          
1 20453U 90008B   26011.18632230  .00056038  00000+0  82716-3 0  9994
2 20453  35.6032 189.9752 0102841  86.7758 274.4736 15.48249550917196
COSMOS 2058             
1 20465U 90010A   26011.30074374  .00004080  00000+0  24385-3 0  9991
2 20465  82.4690 103.9533 0010192 167.2092 192.9398 15.10792460933575
SL-14 R/B               
1 20466U 90010B   26011.28876060  .00000535  00000+0  61949-4 0  9990
2 20466  82.5041 321.2962 0021063 126.2660 234.0505 14.83506521919979
SL-14 R/B               
1 20511U 90018B   26011.18372789  .00000474  00000+0  56622-4 0  9991
2 20511  82.5217 276.8476 0014948 282.8933  77.0611 14.82083442914065
HST                     
1 20580U 90037B   26010.85168127  .00007215  00000+0  24490-3 0  9997
2 20580  28.4669  74.2672 0002139 179.3413 180.7186 15.28490865764458
SL-16 R/B               
1 20625U 90046B   26011.29534480  .00000228  00000+0  14200-3 0  9990
2 20625  70.9998  58.4518 0013191  22.9156 337.2553 14.15006140840271
COSMOS 2084             
1 20663U 90055A   26010.93365111  .00003384  00000+0  24812-3 0  9991
2 20663  62.7889 172.5037 0026794 179.0676 181.0479 15.05233437927627
SL-6 R/B(2)             
1 20666U 90055D   26011.23775001  .00002266  00000+0  18062-3 0  9999
2 20666  62.7836  89.1741 0016469 327.0394  32.9677 15.03252330929556
SL-8 R/B                
1 20775U 90078B   26011.28292803  .00018896  00000+0  57497-3 0  9995
2 20775  82.9058 302.8482 0368831 206.4169 151.7835 14.86982431800766
SL-8 R/B                
1 21088U 91006B   26011.33657560 -.00000008  00000+0 -23180-4 0  9997
2 21088  82.9407 212.6966 0022117 193.0388 340.1566 13.77492548756179
OKEAN-3                 
1 21397U 91039A   26011.15120223  .00002771  00000+0  19643-3 0  9992
2 21397  82.5164  32.5712 0015128 160.7983 199.3817 15.04334399856380
COSMOS 2151             
1 21422U 91042A   26011.31330172  .00002237  00000+0  17838-3 0  9990
2 21422  82.4978 139.0028 0011293 251.0809 108.9191 14.99838497854597
